[
    {
        "CCSDS_OMM_VERS": "3.0",
        "COMMENT": "GENERATED VIA SPACE-TRACK.ORG API",
        "CREATION_DATE": "2025-05-04T06:56:20",
        "ORIGINATOR": "18 SPCS",
        "OBJECT_NAME": "BEIDOU 13",
        "OBJECT_ID": "2012-018B",
        "CENTER_NAME": "EARTH",
        "REF_FRAME": "TEME",
        "TIME_SYSTEM": "UTC",
        "MEAN_ELEMENT_THEORY": "SGP4",
        "EPOCH": "2025-05-03T23:03:31.788576",
        "MEAN_MOTION": "1.86232095",
        "ECCENTRICITY": "0.00114170",
        "INCLINATION": "56.0055",
        "RA_OF_ASC_NODE": "317.8772",
        "ARG_OF_PERICENTER": "275.5121",
        "MEAN_ANOMALY": "84.3644",
        "EPHEMERIS_TYPE": "0",
        "CLASSIFICATION_TYPE": "U",
        "NORAD_CAT_ID": "38251",
        "ELEMENT_SET_NO": "999",
        "REV_AT_EPOCH": "8867",
        "BSTAR": "0.00000000000000",
        "MEAN_MOTION_DOT": "-0.00000067",
        "MEAN_MOTION_DDOT": "0.0000000000000",
        "SEMIMAJOR_AXIS": "27906.079",
        "PERIOD": "773.229",
        "APOAPSIS": "21559.805",
        "PERIAPSIS": "21496.084",
        "OBJECT_TYPE": "PAYLOAD",
        "RCS_SIZE": "LARGE",
        "COUNTRY_CODE": "PRC",
        "LAUNCH_DATE": "2012-04-29",
        "SITE": "XSC",
        "DECAY_DATE": null,
        "FILE": "4718501",
        "GP_ID": "286817787",
        "TLE_LINE0": "0 BEIDOU 13",
        "TLE_LINE1": "1 38251U 12018B   25123.96078459 -.00000067  00000-0  00000+0 0  9995",
        "TLE_LINE2": "2 38251  56.0055 317.8772 0011417 275.5121  84.3644  1.86232095 88678"
    }
]